IRIDIUM 155             
1 43573U 18061E   24099.35458504  .00000374  00000+0  12656-3 0  9992
2 43573  86.4010  30.9316 0002400  83.3666 276.7803 14.34218080298714
IRIDIUM 154             
1 43574U 18061F   24099.89369073  .00000345  00000+0  11626-3 0  9998
2 43574  86.4016  30.8008 0002031  89.1432 270.9996 14.34210985298842
IRIDIUM 163             
1 43575U 18061G   24099.80488000  .00000036  00000+0  59061-5 0  9996
2 43575  86.4014  30.7781 0002324  86.6531 273.4931 14.34215055298801
IRIDIUM 156             
1 43576U 18061H   24099.57021427  .00000340  00000+0  11447-3 0  9999
2 43576  86.4013  30.8824 0002260  81.1157 279.0294 14.34219053298764
IRIDIUM 164             
1 43577U 18061J   24100.03956567  .00000024  00000+0  13630-5 0  9993
2 43577  86.4013  30.7143 0001998  82.5802 277.5621 14.34217013298870
IRIDIUM 159             
1 43578U 18061K   24100.07762130  .00000208  00000+0  67234-4 0  9991
2 43578  86.4012  30.6520 0002097  87.9117 272.2319 14.34219339298843
IRIDIUM 180             
1 43922U 19002A   24100.35619636  .00000259  00000+0  85251-4 0  9998
2 43922  86.3970 327.4582 0002103  86.9046 273.2390 14.34219890274533
IRIDIUM 176             
1 43923U 19002B   24100.13065085  .00001047  00000+0  16208-3 0  9999
2 43923  86.6100 327.5794 0002441  90.0923 270.0573 14.72247396281689
IRIDIUM 168             
1 43924U 19002C   24100.34984465  .00000321  00000+0  10754-3 0  9999
2 43924  86.3973 327.5156 0002033  87.7813 272.3616 14.34220467274475
IRIDIUM 173             
1 43925U 19002D   24100.33716996  .00000305  00000+0  10174-3 0  9999
2 43925  86.3969 327.4426 0002099  88.0397 272.1039 14.34218558274467
IRIDIUM 169             
1 43926U 19002E   24100.47375759  .00000430  00000+0  13422-3 0  9991
2 43926  86.4279 358.9843 0004415  90.8568 269.3136 14.38601037275391
IRIDIUM 172             
1 43927U 19002F   24099.91222240  .00000314  00000+0  10494-3 0  9991
2 43927  86.3971 327.6257 0002017  87.4572 272.6855 14.34218324274400
IRIDIUM 175             
1 43928U 19002G   24100.05682196  .00000386  00000+0  57247-4 0  9997
2 43928  86.1472 304.6545 0002274  88.4317 271.7160 14.72235704281661
IRIDIUM 171             
1 43929U 19002H   24100.17225644  .00000253  00000+0  83366-4 0  9996
2 43929  86.3980 327.7348 0002100  81.9546 278.1888 14.34219469274438
IRIDIUM 170             
1 43930U 19002J   24100.13685234  .00001047  00000+0  16211-3 0  9995
2 43930  86.6099 327.5813 0002214  93.3532 266.7938 14.72264806281699
IRIDIUM 167             
1 43931U 19002K   24100.16591163  .00000081  00000+0  21871-4 0  9992
2 43931  86.3969 327.5351 0002100  84.1799 275.9637 14.34216159274435
IRIDIUM 181             
1 56726U 23068S   24099.51337557  .00000497  00000+0  14093-3 0  9994
2 56726  86.8692  18.1198 0002297  79.1318 281.0142 14.43562123 47082
IRIDIUM 177             
1 56727U 23068T   24100.40668908  .00001491  00000+0  19272-3 0  9992
2 56727  86.2010 348.0252 0002263  84.3041 275.8438 14.80238142 48207
IRIDIUM 174             
1 56728U 23068U   24100.19848708  .00001504  00000+0  19439-3 0  9997
2 56728  86.2018 348.2222 0002543  88.2829 271.8684 14.80236574 48175
IRIDIUM 178             
1 56729U 23068V   24100.19314074  .00001633  00000+0  21151-3 0  9999
2 56729  86.5834   2.4074 0002605  93.7287 266.4233 14.80231852 48171
IRIDIUM 179             
1 56730U 23068W   24100.18771492  .00001662  00000+0  21528-3 0  9991
2 56730  86.6847   5.6718 0002568  92.0558 268.0958 14.80233678 48179
